ORBCOMM FM33            
1 25983U 99065D   24142.88199490  .00002781  00000+0  96167-3 0  9996
2 25983  45.0291  56.1147 0008569 259.0208 209.9125 14.37754943279708
ORBCOMM FM36            
1 25984U 99065E   24141.94301344  .00002920  00000+0  10516-2 0  9994
2 25984  45.0377 146.2424 0001456 152.3463 207.7462 14.35635911278002
ORBCOMM FM35            
1 25985U 99065F   24142.05765907  .00002575  00000+0  94096-3 0  9999
2 25985  45.0374 148.3843 0004725 254.9088 105.1237 14.35202906278412
ORBCOMM FM34            
1 25986U 99065G   24142.37638135  .00001996  00000+0  74094-3 0  9999
2 25986  45.0369 147.4181 0003522 213.0129 147.0499 14.35170016278576
ORBCOMM FM38            
1 33060U 08031A   24142.85953034  .00004089  00000+0  59378-3 0  9999
2 33060  48.4420  15.0067 0005544 167.7881 192.3168 14.77649075856808
ORBCOMM FM41            
1 33061U 08031B   24142.79406014  .00004060  00000+0  59353-3 0  9996
2 33061  48.4452  21.9645 0004612 153.1989 324.1381 14.77373766856291
ORBCOMM FM29            
1 33062U 08031C   24142.91344234  .00004162  00000+0  60852-3 0  9995
2 33062  48.4408  29.4348 0006459 149.7565 302.0512 14.77311904856228
ORBCOMM FM39            
1 33063U 08031D   24142.86935525  .00003603  00000+0  54331-3 0  9993
2 33063  48.4416  50.2451 0007144 123.5387 236.6210 14.76300023855910
