<?xml version="1.0" encoding="UTF-8"?>
<ndm xmlns:xsi="http://www.w3.org/2001/XMLSchema-instance" xsi:noNamespaceSchemaLocation="https://sanaregistry.org/r/ndmxml_unqualified/ndmxml-2.0.0-master-2.0.xsd">
<omm id="CCSDS_OMM_VERS" version="2.0">
<header><CREATION_DATE/><ORIGINATOR/></header><body><segment><metadata><OBJECT_NAME>ORBCOMM FM33</OBJECT_NAME><OBJECT_ID>1999-065D</OBJECT_ID><CENTER_NAME>EARTH</CENTER_NAME><REF_FRAME>TEME</REF_FRAME><TIME_SYSTEM>UTC</TIME_SYSTEM><MEAN_ELEMENT_THEORY>SGP4</MEAN_ELEMENT_THEORY></metadata><data><meanElements><EPOCH>2024-05-21T21:10:04.359360</EPOCH><MEAN_MOTION>14.37754943</MEAN_MOTION><ECCENTRICITY>.0008569</ECCENTRICITY><INCLINATION>45.0291</INCLINATION><RA_OF_ASC_NODE>56.1147</RA_OF_ASC_NODE><ARG_OF_PERICENTER>259.0208</ARG_OF_PERICENTER><MEAN_ANOMALY>209.9125</MEAN_ANOMALY></meanElements><tleParameters><EPHEMERIS_TYPE>0</EPHEMERIS_TYPE><CLASSIFICATION_TYPE>U</CLASSIFICATION_TYPE><NORAD_CAT_ID>25983</NORAD_CAT_ID><ELEMENT_SET_NO>999</ELEMENT_SET_NO><REV_AT_EPOCH>27970</REV_AT_EPOCH><BSTAR>.96167E-3</BSTAR><MEAN_MOTION_DOT>.2781E-4</MEAN_MOTION_DOT><MEAN_MOTION_DDOT>0</MEAN_MOTION_DDOT></tleParameters></data></segment></body></omm>
<omm id="CCSDS_OMM_VERS" version="2.0">
<header><CREATION_DATE/><ORIGINATOR/></header><body><segment><metadata><OBJECT_NAME>ORBCOMM FM36</OBJECT_NAME><OBJECT_ID>1999-065E</OBJECT_ID><CENTER_NAME>EARTH</CENTER_NAME><REF_FRAME>TEME</REF_FRAME><TIME_SYSTEM>UTC</TIME_SYSTEM><MEAN_ELEMENT_THEORY>SGP4</MEAN_ELEMENT_THEORY></metadata><data><meanElements><EPOCH>2024-05-20T22:37:56.361216</EPOCH><MEAN_MOTION>14.35635911</MEAN_MOTION><ECCENTRICITY>.0001456</ECCENTRICITY><INCLINATION>45.0377</INCLINATION><RA_OF_ASC_NODE>146.2424</RA_OF_ASC_NODE><ARG_OF_PERICENTER>152.3463</ARG_OF_PERICENTER><MEAN_ANOMALY>207.7462</MEAN_ANOMALY></meanElements><tleParameters><EPHEMERIS_TYPE>0</EPHEMERIS_TYPE><CLASSIFICATION_TYPE>U</CLASSIFICATION_TYPE><NORAD_CAT_ID>25984</NORAD_CAT_ID><ELEMENT_SET_NO>999</ELEMENT_SET_NO><REV_AT_EPOCH>27800</REV_AT_EPOCH><BSTAR>.10516E-2</BSTAR><MEAN_MOTION_DOT>.292E-4</MEAN_MOTION_DOT><MEAN_MOTION_DDOT>0</MEAN_MOTION_DDOT></tleParameters></data></segment></body></omm>
<omm id="CCSDS_OMM_VERS" version="2.0">
<header><CREATION_DATE/><ORIGINATOR/></header><body><segment><metadata><OBJECT_NAME>ORBCOMM FM35</OBJECT_NAME><OBJECT_ID>1999-065F</OBJECT_ID><CENTER_NAME>EARTH</CENTER_NAME><REF_FRAME>TEME</REF_FRAME><TIME_SYSTEM>UTC</TIME_SYSTEM><MEAN_ELEMENT_THEORY>SGP4</MEAN_ELEMENT_THEORY></metadata><data><meanElements><EPOCH>2024-05-21T01:23:01.743648</EPOCH><MEAN_MOTION>14.35202906</MEAN_MOTION><ECCENTRICITY>.0004725</ECCENTRICITY><INCLINATION>45.0374</INCLINATION><RA_OF_ASC_NODE>148.3843</RA_OF_ASC_NODE><ARG_OF_PERICENTER>254.9088</ARG_OF_PERICENTER><MEAN_ANOMALY>105.1237</MEAN_ANOMALY></meanElements><tleParameters><EPHEMERIS_TYPE>0</EPHEMERIS_TYPE><CLASSIFICATION_TYPE>U</CLASSIFICATION_TYPE><NORAD_CAT_ID>25985</NORAD_CAT_ID><ELEMENT_SET_NO>999</ELEMENT_SET_NO><REV_AT_EPOCH>27841</REV_AT_EPOCH><BSTAR>.94096E-3</BSTAR><MEAN_MOTION_DOT>.2575E-4</MEAN_MOTION_DOT><MEAN_MOTION_DDOT>0</MEAN_MOTION_DDOT></tleParameters></data></segment></body></omm>
<omm id="CCSDS_OMM_VERS" version="2.0">
<header><CREATION_DATE/><ORIGINATOR/></header><body><segment><metadata><OBJECT_NAME>ORBCOMM FM34</OBJECT_NAME><OBJECT_ID>1999-065G</OBJECT_ID><CENTER_NAME>EARTH</CENTER_NAME><REF_FRAME>TEME</REF_FRAME><TIME_SYSTEM>UTC</TIME_SYSTEM><MEAN_ELEMENT_THEORY>SGP4</MEAN_ELEMENT_THEORY></metadata><data><meanElements><EPOCH>2024-05-21T09:01:59.348640</EPOCH><MEAN_MOTION>14.35170016</MEAN_MOTION><ECCENTRICITY>.0003522</ECCENTRICITY><INCLINATION>45.0369</INCLINATION><RA_OF_ASC_NODE>147.4181</RA_OF_ASC_NODE><ARG_OF_PERICENTER>213.0129</ARG_OF_PERICENTER><MEAN_ANOMALY>147.0499</MEAN_ANOMALY></meanElements><tleParameters><EPHEMERIS_TYPE>0</EPHEMERIS_TYPE><CLASSIFICATION_TYPE>U</CLASSIFICATION_TYPE><NORAD_CAT_ID>25986</NORAD_CAT_ID><ELEMENT_SET_NO>999</ELEMENT_SET_NO><REV_AT_EPOCH>27857</REV_AT_EPOCH><BSTAR>.74094E-3</BSTAR><MEAN_MOTION_DOT>.1996E-4</MEAN_MOTION_DOT><MEAN_MOTION_DDOT>0</MEAN_MOTION_DDOT></tleParameters></data></segment></body></omm>
<omm id="CCSDS_OMM_VERS" version="2.0">
<header><CREATION_DATE/><ORIGINATOR/></header><body><segment><metadata><OBJECT_NAME>ORBCOMM FM38</OBJECT_NAME><OBJECT_ID>2008-031A</OBJECT_ID><CENTER_NAME>EARTH</CENTER_NAME><REF_FRAME>TEME</REF_FRAME><TIME_SYSTEM>UTC</TIME_SYSTEM><MEAN_ELEMENT_THEORY>SGP4</MEAN_ELEMENT_THEORY></metadata><data><meanElements><EPOCH>2024-05-21T20:37:43.421376</EPOCH><MEAN_MOTION>14.77649075</MEAN_MOTION><ECCENTRICITY>.0005544</ECCENTRICITY><INCLINATION>48.4420</INCLINATION><RA_OF_ASC_NODE>15.0067</RA_OF_ASC_NODE><ARG_OF_PERICENTER>167.7881</ARG_OF_PERICENTER><MEAN_ANOMALY>192.3168</MEAN_ANOMALY></meanElements><tleParameters><EPHEMERIS_TYPE>0</EPHEMERIS_TYPE><CLASSIFICATION_TYPE>U</CLASSIFICATION_TYPE><NORAD_CAT_ID>33060</NORAD_CAT_ID><ELEMENT_SET_NO>999</ELEMENT_SET_NO><REV_AT_EPOCH>85680</REV_AT_EPOCH><BSTAR>.59378E-3</BSTAR><MEAN_MOTION_DOT>.4089E-4</MEAN_MOTION_DOT><MEAN_MOTION_DDOT>0</MEAN_MOTION_DDOT></tleParameters></data></segment></body></omm>
<omm id="CCSDS_OMM_VERS" version="2.0">
<header><CREATION_DATE/><ORIGINATOR/></header><body><segment><metadata><OBJECT_NAME>ORBCOMM FM41</OBJECT_NAME><OBJECT_ID>2008-031B</OBJECT_ID><CENTER_NAME>EARTH</CENTER_NAME><REF_FRAME>TEME</REF_FRAME><TIME_SYSTEM>UTC</TIME_SYSTEM><MEAN_ELEMENT_THEORY>SGP4</MEAN_ELEMENT_THEORY></metadata><data><meanElements><EPOCH>2024-05-21T19:03:26.796096</EPOCH><MEAN_MOTION>14.77373766</MEAN_MOTION><ECCENTRICITY>.0004612</ECCENTRICITY><INCLINATION>48.4452</INCLINATION><RA_OF_ASC_NODE>21.9645</RA_OF_ASC_NODE><ARG_OF_PERICENTER>153.1989</ARG_OF_PERICENTER><MEAN_ANOMALY>324.1381</MEAN_ANOMALY></meanElements><tleParameters><EPHEMERIS_TYPE>0</EPHEMERIS_TYPE><CLASSIFICATION_TYPE>U</CLASSIFICATION_TYPE><NORAD_CAT_ID>33061</NORAD_CAT_ID><ELEMENT_SET_NO>999</ELEMENT_SET_NO><REV_AT_EPOCH>85629</REV_AT_EPOCH><BSTAR>.59353E-3</BSTAR><MEAN_MOTION_DOT>.406E-4</MEAN_MOTION_DOT><MEAN_MOTION_DDOT>0</MEAN_MOTION_DDOT></tleParameters></data></segment></body></omm>
<omm id="CCSDS_OMM_VERS" version="2.0">
<header><CREATION_DATE/><ORIGINATOR/></header><body><segment><metadata><OBJECT_NAME>ORBCOMM FM29</OBJECT_NAME><OBJECT_ID>2008-031C</OBJECT_ID><CENTER_NAME>EARTH</CENTER_NAME><REF_FRAME>TEME</REF_FRAME><TIME_SYSTEM>UTC</TIME_SYSTEM><MEAN_ELEMENT_THEORY>SGP4</MEAN_ELEMENT_THEORY></metadata><data><meanElements><EPOCH>2024-05-21T21:55:21.418176</EPOCH><MEAN_MOTION>14.77311904</MEAN_MOTION><ECCENTRICITY>.0006459</ECCENTRICITY><INCLINATION>48.4408</INCLINATION><RA_OF_ASC_NODE>29.4348</RA_OF_ASC_NODE><ARG_OF_PERICENTER>149.7565</ARG_OF_PERICENTER><MEAN_ANOMALY>302.0512</MEAN_ANOMALY></meanElements><tleParameters><EPHEMERIS_TYPE>0</EPHEMERIS_TYPE><CLASSIFICATION_TYPE>U</CLASSIFICATION_TYPE><NORAD_CAT_ID>33062</NORAD_CAT_ID><ELEMENT_SET_NO>999</ELEMENT_SET_NO><REV_AT_EPOCH>85622</REV_AT_EPOCH><BSTAR>.60852E-3</BSTAR><MEAN_MOTION_DOT>.4162E-4</MEAN_MOTION_DOT><MEAN_MOTION_DDOT>0</MEAN_MOTION_DDOT></tleParameters></data></segment></body></omm>
<omm id="CCSDS_OMM_VERS" version="2.0">
<header><CREATION_DATE/><ORIGINATOR/></header><body><segment><metadata><OBJECT_NAME>ORBCOMM FM39</OBJECT_NAME><OBJECT_ID>2008-031D</OBJECT_ID><CENTER_NAME>EARTH</CENTER_NAME><REF_FRAME>TEME</REF_FRAME><TIME_SYSTEM>UTC</TIME_SYSTEM><MEAN_ELEMENT_THEORY>SGP4</MEAN_ELEMENT_THEORY></metadata><data><meanElements><EPOCH>2024-05-21T20:51:52.293600</EPOCH><MEAN_MOTION>14.76300023</MEAN_MOTION><ECCENTRICITY>.0007144</ECCENTRICITY><INCLINATION>48.4416</INCLINATION><RA_OF_ASC_NODE>50.2451</RA_OF_ASC_NODE><ARG_OF_PERICENTER>123.5387</ARG_OF_PERICENTER><MEAN_ANOMALY>236.6210</MEAN_ANOMALY></meanElements><tleParameters><EPHEMERIS_TYPE>0</EPHEMERIS_TYPE><CLASSIFICATION_TYPE>U</CLASSIFICATION_TYPE><NORAD_CAT_ID>33063</NORAD_CAT_ID><ELEMENT_SET_NO>999</ELEMENT_SET_NO><REV_AT_EPOCH>85591</REV_AT_EPOCH><BSTAR>.54331E-3</BSTAR><MEAN_MOTION_DOT>.3603E-4</MEAN_MOTION_DOT><MEAN_MOTION_DDOT>0</MEAN_MOTION_DDOT></tleParameters></data></segment></body></omm>

</ndm>
